start=new Date('2022-04-11T00:00:00.000Z').valueOf();
sats=[{"PERIOD":"95.592","PERIAPSIS":"546.161","ELEMENT_SET_NO":"999","RCS_SIZE":"LARGE","MEAN_MOTION_DOT":"0.00001635","NORAD_CAT_ID":"46134","CENTER_NAME":"EARTH","REF_FRAME":"TEME","GP_ID":"200939390","APOAPSIS":"548.226","MEAN_MOTION":"15.06406525","SITE":"AFETR","COUNTRY_CODE":"US","SEMIMAJOR_AXIS":"6925.329","DECAY_DATE":null,"TIME_SYSTEM":"UTC","TLE_LINE1":"1 46134U 20057T   22100.62849462  .00001635  00000-0  12861-3 0  9994","BSTAR":"0.00012861000000","RA_OF_ASC_NODE":"211.9127","REV_AT_EPOCH":"9123","LAUNCH_DATE":"2020-08-18","ECCENTRICITY":"0.00014910","EPOCH":"2022-04-10T15:05:01.935168","TLE_LINE2":"2 46134  53.0531 211.9127 0001491  66.6322 293.4823 15.06406525 91230","OBJECT_NAME":"STARLINK-1638","ARG_OF_PERICENTER":"66.6322","OBJECT_ID":"2020-057T","FILE":"3396586","MEAN_ELEMENT_THEORY":"SGP4","OBJECT_TYPE":"PAYLOAD","MEAN_ANOMALY":"293.4823","INCLINATION":"53.0531","CLASSIFICATION_TYPE":"U","EPHEMERIS_TYPE":"0","MEAN_MOTION_DDOT":"0.0000000000000"},{"PERIOD":"95.592","PERIAPSIS":"545.997","ELEMENT_SET_NO":"999","RCS_SIZE":"LARGE","MEAN_MOTION_DOT":"0.00006798","NORAD_CAT_ID":"46135","CENTER_NAME":"EARTH","REF_FRAME":"TEME","GP_ID":"200912779","APOAPSIS":"548.402","MEAN_MOTION":"15.06404542","SITE":"AFETR","COUNTRY_CODE":"US","SEMIMAJOR_AXIS":"6925.335","DECAY_DATE":null,"TIME_SYSTEM":"UTC","BSTAR":"0.00047474000000","TLE_LINE1":"1 46135U 20057U   22100.77593944  .00006798  00000-0  47474-3 0  9995","REV_AT_EPOCH":"9191","RA_OF_ASC_NODE":"211.2575","LAUNCH_DATE":"2020-08-18","ECCENTRICITY":"0.00017360","EPOCH":"2022-04-10T18:37:21.167616","TLE_LINE2":"2 46135  53.0528 211.2575 0001736  55.9963 304.1191 15.06404542 91911","OBJECT_NAME":"STARLINK-1639","ARG_OF_PERICENTER":"55.9963","FILE":"3396286","OBJECT_ID":"2020-057U","OBJECT_TYPE":"PAYLOAD","MEAN_ELEMENT_THEORY":"SGP4","MEAN_ANOMALY":"304.1191","INCLINATION":"53.0528","CLASSIFICATION_TYPE":"U","MEAN_MOTION_DDOT":"0.0000000000000","EPHEMERIS_TYPE":"0"},{"GP_ID":"200938389","APOAPSIS":"548.338","MEAN_MOTION":"15.06416190","CENTER_NAME":"EARTH","REF_FRAME":"TEME","RCS_SIZE":"LARGE","MEAN_MOTION_DOT":"0.00007513","NORAD_CAT_ID":"46136","PERIAPSIS":"545.990","PERIOD":"95.591","ELEMENT_SET_NO":"999","CLASSIFICATION_TYPE":"U","MEAN_MOTION_DDOT":"0.0000000000000","EPHEMERIS_TYPE":"0","LAUNCH_DATE":"2020-08-18","ECCENTRICITY":"0.00016950","EPOCH":"2022-04-10T18:12:07.776576","TLE_LINE2":"2 46136  53.0530 241.3345 0001695  56.6830 303.4321 15.06416190 90838","OBJECT_NAME":"STARLINK-1643","ARG_OF_PERICENTER":"56.6830","FILE":"3396586","OBJECT_ID":"2020-057V","OBJECT_TYPE":"PAYLOAD","MEAN_ELEMENT_THEORY":"SGP4","MEAN_ANOMALY":"303.4321","INCLINATION":"53.0530","DECAY_DATE":null,"TIME_SYSTEM":"UTC","TLE_LINE1":"1 46136U 20057V   22100.75842334  .00007513  00000-0  52250-3 0  9998","BSTAR":"0.00052250000000","RA_OF_ASC_NODE":"241.3345","REV_AT_EPOCH":"9083","SITE":"AFETR","COUNTRY_CODE":"US","SEMIMAJOR_AXIS":"6925.299"},{"NORAD_CAT_ID":"46137","MEAN_MOTION_DOT":"0.00002317","RCS_SIZE":"LARGE","PERIOD":"95.592","PERIAPSIS":"545.828","ELEMENT_SET_NO":"999","APOAPSIS":"548.550","MEAN_MOTION":"15.06407953","GP_ID":"200938639","REF_FRAME":"TEME","CENTER_NAME":"EARTH","REV_AT_EPOCH":"9098","RA_OF_ASC_NODE":"230.9552","TLE_LINE1":"1 46137U 20057W   22100.84411791  .00002317  00000-0  17436-3 0  9992","BSTAR":"0.00017436000000","DECAY_DATE":null,"TIME_SYSTEM":"UTC","SEMIMAJOR_AXIS":"6925.324","COUNTRY_CODE":"US","SITE":"AFETR","EPHEMERIS_TYPE":"0","MEAN_MOTION_DDOT":"0.0000000000000","CLASSIFICATION_TYPE":"U","MEAN_ELEMENT_THEORY":"SGP4","OBJECT_TYPE":"PAYLOAD","INCLINATION":"53.0565","MEAN_ANOMALY":"319.2974","OBJECT_ID":"2020-057W","FILE":"3396586","TLE_LINE2":"2 46137  53.0565 230.9552 0001965  40.8162 319.2974 15.06407953 90986","EPOCH":"2022-04-10T20:15:31.787424","OBJECT_NAME":"STARLINK-1586","ARG_OF_PERICENTER":"40.8162","LAUNCH_DATE":"2020-08-18","ECCENTRICITY":"0.00019650"},{"CLASSIFICATION_TYPE":"U","EPHEMERIS_TYPE":"0","MEAN_MOTION_DDOT":"0.0000000000000","LAUNCH_DATE":"2020-08-18","ECCENTRICITY":"0.00017940","EPOCH":"2022-04-10T17:01:47.723232","TLE_LINE2":"2 46138  53.0549 251.5558 0001794  45.7449 314.3687 15.06408687 90685","OBJECT_NAME":"STARLINK-1590","ARG_OF_PERICENTER":"45.7449","FILE":"3396586","OBJECT_ID":"2020-057X","OBJECT_TYPE":"PAYLOAD","INCLINATION":"53.0549","MEAN_ELEMENT_THEORY":"SGP4","MEAN_ANOMALY":"314.3687","DECAY_DATE":null,"TIME_SYSTEM":"UTC","TLE_LINE1":"1 46138U 20057X   22100.70958013  .00001190  00000-0  98790-4 0  9992","BSTAR":"0.00009879000000","REV_AT_EPOCH":"9068","RA_OF_ASC_NODE":"251.5558","SITE":"AFETR","COUNTRY_CODE":"US","SEMIMAJOR_AXIS":"6925.322","GP_ID":"200939891","APOAPSIS":"548.429","MEAN_MOTION":"15.06408687","CENTER_NAME":"EARTH","REF_FRAME":"TEME","RCS_SIZE":"LARGE","MEAN_MOTION_DOT":"0.00001190","NORAD_CAT_ID":"46138","PERIAPSIS":"545.945","PERIOD":"95.592","ELEMENT_SET_NO":"999"},{"DECAY_DATE":null,"TIME_SYSTEM":"UTC","RA_OF_ASC_NODE":"211.1386","REV_AT_EPOCH":"9192","TLE_LINE1":"1 46140U 20057Z   22100.80173435  .00012850  00000-0  87961-3 0  9995","BSTAR":"0.00087961000000","SITE":"AFETR","SEMIMAJOR_AXIS":"6925.302","COUNTRY_CODE":"US","CLASSIFICATION_TYPE":"U","EPHEMERIS_TYPE":"0","MEAN_MOTION_DDOT":"0.0000000000000","TLE_LINE2":"2 46140  53.0529 211.1386 0002042  40.6043 319.5098 15.06415188 91923","OBJECT_NAME":"STARLINK-1594","EPOCH":"2022-04-10T19:14:29.847840","ARG_OF_PERICENTER":"40.6043","LAUNCH_DATE":"2020-08-18","ECCENTRICITY":"0.00020420","MEAN_ELEMENT_THEORY":"SGP4","OBJECT_TYPE":"PAYLOAD","MEAN_ANOMALY":"319.5098","INCLINATION":"53.0529","FILE":"3396268","OBJECT_ID":"2020-057Z","MEAN_MOTION_DOT":"0.00012850","RCS_SIZE":"LARGE","NORAD_CAT_ID":"46140","PERIAPSIS":"545.753","PERIOD":"95.591","ELEMENT_SET_NO":"999","GP_ID":"200912027","APOAPSIS":"548.581","MEAN_MOTION":"15.06415188","CENTER_NAME":"EARTH","REF_FRAME":"TEME"},{"RCS_SIZE":"LARGE","MEAN_MOTION_DOT":"0.00008139","NORAD_CAT_ID":"46141","ELEMENT_SET_NO":"999","PERIAPSIS":"546.010","PERIOD":"95.591","GP_ID":"200912047","MEAN_MOTION":"15.06414253","APOAPSIS":"548.330","CENTER_NAME":"EARTH","REF_FRAME":"TEME","TIME_SYSTEM":"UTC","DECAY_DATE":null,"BSTAR":"0.00056447000000","TLE_LINE1":"1 46141U 20057AA  22100.77962605  .00008139  00000-0  56447-3 0  9997","REV_AT_EPOCH":"9191","RA_OF_ASC_NODE":"211.2382","SITE":"AFETR","COUNTRY_CODE":"US","SEMIMAJOR_AXIS":"6925.305","CLASSIFICATION_TYPE":"U","EPHEMERIS_TYPE":"0","MEAN_MOTION_DDOT":"0.0000000000000","ECCENTRICITY":"0.00016750","LAUNCH_DATE":"2020-08-18","ARG_OF_PERICENTER":"57.1822","EPOCH":"2022-04-10T18:42:39.690720","TLE_LINE2":"2 46141  53.0528 211.2382 0001675  57.1822 302.9328 15.06414253 91912","OBJECT_NAME":"STARLINK-1596","OBJECT_ID":"2020-057AA","FILE":"3396274","OBJECT_TYPE":"PAYLOAD","MEAN_ELEMENT_THEORY":"SGP4","INCLINATION":"53.0528","MEAN_ANOMALY":"302.9328"},{"GP_ID":"200939140","MEAN_MOTION":"15.06409214","APOAPSIS":"548.245","CENTER_NAME":"EARTH","REF_FRAME":"TEME","MEAN_MOTION_DOT":"0.00003076","RCS_SIZE":"LARGE","NORAD_CAT_ID":"46142","ELEMENT_SET_NO":"999","PERIAPSIS":"546.126","PERIOD":"95.592","CLASSIFICATION_TYPE":"U","EPHEMERIS_TYPE":"0","MEAN_MOTION_DDOT":"0.0000000000000","ARG_OF_PERICENTER":"66.6868","OBJECT_NAME":"STARLINK-1597","TLE_LINE2":"2 46142  53.0546 251.1654 0001530  66.6868 293.4282 15.06409214 90691","EPOCH":"2022-04-10T19:09:11.162304","ECCENTRICITY":"0.00015300","LAUNCH_DATE":"2020-08-18","MEAN_ELEMENT_THEORY":"SGP4","OBJECT_TYPE":"PAYLOAD","INCLINATION":"53.0546","MEAN_ANOMALY":"293.4282","OBJECT_ID":"2020-057AB","FILE":"3396586","TIME_SYSTEM":"UTC","DECAY_DATE":null,"REV_AT_EPOCH":"9069","RA_OF_ASC_NODE":"251.1654","BSTAR":"0.00022523000000","TLE_LINE1":"1 46142U 20057AB  22100.79804586  .00003076  00000-0  22523-3 0  9996","SITE":"AFETR","SEMIMAJOR_AXIS":"6925.320","COUNTRY_CODE":"US"},{"SITE":"AFETR","SEMIMAJOR_AXIS":"6925.308","COUNTRY_CODE":"US","DECAY_DATE":null,"TIME_SYSTEM":"UTC","RA_OF_ASC_NODE":"231.9224","REV_AT_EPOCH":"7920","TLE_LINE1":"1 46144U 20057AD  22100.63033688  .00006391  00000-0  44742-3 0  9998","BSTAR":"0.00044742000000","OBJECT_NAME":"STARLINK-1606","TLE_LINE2":"2 46144  53.0544 231.9224 0001510  60.5291 299.5848 15.06413190 79208","EPOCH":"2022-04-10T15:07:41.106432","ARG_OF_PERICENTER":"60.5291","LAUNCH_DATE":"2020-08-18","ECCENTRICITY":"0.00015100","INCLINATION":"53.0544","OBJECT_TYPE":"PAYLOAD","MEAN_ANOMALY":"299.5848","MEAN_ELEMENT_THEORY":"SGP4","OBJECT_ID":"2020-057AD","FILE":"3396586","CLASSIFICATION_TYPE":"U","MEAN_MOTION_DDOT":"0.0000000000000","EPHEMERIS_TYPE":"0","PERIAPSIS":"546.127","PERIOD":"95.591","ELEMENT_SET_NO":"999","MEAN_MOTION_DOT":"0.00006391","RCS_SIZE":"LARGE","NORAD_CAT_ID":"46144","CENTER_NAME":"EARTH","REF_FRAME":"TEME","GP_ID":"200939391","APOAPSIS":"548.219","MEAN_MOTION":"15.06413190"},{"MEAN_ANOMALY":"299.8642","OBJECT_TYPE":"PAYLOAD","MEAN_ELEMENT_THEORY":"SGP4","INCLINATION":"53.0543","FILE":"3396586","OBJECT_ID":"2020-057AF","TLE_LINE2":"2 46146  53.0543 251.6955 0001656  60.2511 299.8642 15.06406733 90687","OBJECT_NAME":"STARLINK-1608","EPOCH":"2022-04-10T16:14:01.271040","ARG_OF_PERICENTER":"60.2511","LAUNCH_DATE":"2020-08-18","ECCENTRICITY":"0.00016560","MEAN_MOTION_DDOT":"0.0000000000000","EPHEMERIS_TYPE":"0","CLASSIFICATION_TYPE":"U","SEMIMAJOR_AXIS":"6925.328","COUNTRY_CODE":"US","SITE":"AFETR","REV_AT_EPOCH":"9068","RA_OF_ASC_NODE":"251.6955","BSTAR":"0.00012787000000","TLE_LINE1":"1 46146U 20057AF  22100.67640360  .00001624  00000-0  12787-3 0  9993","DECAY_DATE":null,"TIME_SYSTEM":"UTC","REF_FRAME":"TEME","CENTER_NAME":"EARTH","APOAPSIS":"548.340","MEAN_MOTION":"15.06406733","GP_ID":"200939642","PERIOD":"95.592","PERIAPSIS":"546.046","ELEMENT_SET_NO":"999","NORAD_CAT_ID":"46146","MEAN_MOTION_DOT":"0.00001624","RCS_SIZE":"LARGE"}];
